{
    "links": {
        "self": "http://www.neowsapp.com/rest/v1/neo/3758261?api_key=iIulBulltgU6a56xZRHN4H3l9WmuAYTsLGpBGhQ2"
    },
    "id": "3758261",
    "neo_reference_id": "3758261",
    "name": "(2016 QP44)",
    "designation": "2016 QP44",
    "nasa_jpl_url": "http://ssd.jpl.nasa.gov/sbdb.cgi?sstr=3758261",
    "absolute_magnitude_h": 23.2,
    "estimated_diameter": {
        "kilometers": {
            "estimated_diameter_min": 0.0608912622,
            "estimated_diameter_max": 0.1361570015
        },
        "meters": {
            "estimated_diameter_min": 60.8912622106,
            "estimated_diameter_max": 136.1570015386
        },
        "miles": {
            "estimated_diameter_min": 0.0378360645,
            "estimated_diameter_max": 0.0846040122
        },
        "feet": {
            "estimated_diameter_min": 199.7744887109,
            "estimated_diameter_max": 446.7093369279
        }
    },
    "is_potentially_hazardous_asteroid": false,
    "close_approach_data": [
        {
            "close_approach_date": "2016-09-02",
            "close_approach_date_full": "2016-Sep-02 02:48",
            "epoch_date_close_approach": 1472784480000,
            "relative_velocity": {
                "kilometers_per_second": "19.1481467438",
                "kilometers_per_hour": "68933.3282775929",
                "miles_per_hour": "42832.4894511521"
            },
            "miss_distance": {
                "astronomical": "0.1300887251",
                "lunar": "50.6045140639",
                "kilometers": "19460996.185975537",
                "miles": "12092502.2931829306"
            },
            "orbiting_body": "Earth"
        }
    ],
    "orbital_data": {
        "orbit_id": "6",
        "orbit_determination_date": "2017-04-06 08:24:20",
        "first_observation_date": "2016-08-30",
        "last_observation_date": "2016-09-09",
        "data_arc_in_days": 10,
        "observations_used": 47,
        "orbit_uncertainty": "8",
        "minimum_orbit_intersection": ".120979",
        "jupiter_tisserand_invariant": "4.388",
        "epoch_osculation": "2457632.5",
        "eccentricity": ".2362481157525438",
        "semi_major_axis": "1.460362082240784",
        "inclination": "36.74214889448201",
        "ascending_node_longitude": "162.1465643659822",
        "orbital_period": "644.5984384073948",
        "perihelion_distance": "1.115354291994937",
        "perihelion_argument": "158.3860626956165",
        "aphelion_distance": "1.80536987248663",
        "perihelion_time": "2457609.981191206394",
        "mean_anomaly": "12.57646727430415",
        "mean_motion": ".5584872356958382",
        "equinox": "J2000",
        "orbit_class": {
            "orbit_class_type": "AMO",
            "orbit_class_description": "Near-Earth asteroid orbits similar to that of 1221 Amor",
            "orbit_class_range": "1.017 AU < q (perihelion) < 1.3 AU"
        }
    },
    "is_sentry_object": false
}